{
    "links": {
        "self": "http://www.neowsapp.com/rest/v1/neo/3745515?api_key=iIulBulltgU6a56xZRHN4H3l9WmuAYTsLGpBGhQ2"
    },
    "id": "3745515",
    "neo_reference_id": "3745515",
    "name": "(2016 CW264)",
    "designation": "2016 CW264",
    "nasa_jpl_url": "http://ssd.jpl.nasa.gov/sbdb.cgi?sstr=3745515",
    "absolute_magnitude_h": 29.8,
    "estimated_diameter": {
        "kilometers": {
            "estimated_diameter_min": 0.002914439,
            "estimated_diameter_max": 0.0065168838
        },
        "meters": {
            "estimated_diameter_min": 2.9144390453,
            "estimated_diameter_max": 6.5168838217
        },
        "miles": {
            "estimated_diameter_min": 0.0018109479,
            "estimated_diameter_max": 0.0040494026
        },
        "feet": {
            "estimated_diameter_min": 9.5618081975,
            "estimated_diameter_max": 21.3808531175
        }
    },
    "is_potentially_hazardous_asteroid": false,
    "close_approach_data": [
        {
            "close_approach_date": "2016-02-10",
            "close_approach_date_full": "2016-Feb-10 08:00",
            "epoch_date_close_approach": 1455091200000,
            "relative_velocity": {
                "kilometers_per_second": "23.9414983446",
                "kilometers_per_hour": "86189.3940404912",
                "miles_per_hour": "53554.737646993"
            },
            "miss_distance": {
                "astronomical": "0.0019498799",
                "lunar": "0.7585032811",
                "kilometers": "291697.879795813",
                "miles": "181252.6577076994"
            },
            "orbiting_body": "Moon"
        },
        {
            "close_approach_date": "2016-02-10",
            "close_approach_date_full": "2016-Feb-10 11:38",
            "epoch_date_close_approach": 1455104280000,
            "relative_velocity": {
                "kilometers_per_second": "24.4835945254",
                "kilometers_per_hour": "88140.9402912812",
                "miles_per_hour": "54767.3525937686"
            },
            "miss_distance": {
                "astronomical": "0.0014060278",
                "lunar": "0.5469448142",
                "kilometers": "210338.764040786",
                "miles": "130698.4474074068"
            },
            "orbiting_body": "Earth"
        }
    ],
    "orbital_data": {
        "orbit_id": "3",
        "orbit_determination_date": "2017-04-06 08:28:08",
        "first_observation_date": "2016-02-11",
        "last_observation_date": "2016-02-12",
        "data_arc_in_days": 1,
        "observations_used": 23,
        "orbit_uncertainty": "8",
        "minimum_orbit_intersection": ".00139817",
        "jupiter_tisserand_invariant": "3.374",
        "epoch_osculation": "2457430.5",
        "eccentricity": ".7649526135547554",
        "semi_major_axis": "2.020387384985816",
        "inclination": "5.73614969551671",
        "ascending_node_longitude": "141.7448558446263",
        "orbital_period": "1048.939401337766",
        "perihelion_distance": ".4748867744478583",
        "perihelion_argument": "257.8174910291551",
        "aphelion_distance": "3.565887995523775",
        "perihelion_time": "2457383.982486044849",
        "mean_anomaly": "15.96498806556122",
        "mean_motion": ".3432038109550214",
        "equinox": "J2000",
        "orbit_class": {
            "orbit_class_type": "APO",
            "orbit_class_description": "Near-Earth asteroid orbits which cross the Earth’s orbit similar to that of 1862 Apollo",
            "orbit_class_range": "a (semi-major axis) > 1.0 AU; q (perihelion) < 1.017 AU"
        }
    },
    "is_sentry_object": false
}